{
  "type": "FeatureCollection",
  "features": [
    {
      "type": "Feature",
      "properties": {
        "norad_id": 29869,
        "name": "FENGYUN 1C DEB",
        "group": "fengyun-1c-debris",
        "lat": 59.8604757162732,
        "lon": -108.71410226677138,
        "alt_km": 704.4018953634722,
        "timestamp": "2025-12-02T21:34:01.543040+00:00",
        "meta_object_name": "FENGYUN 1C DEB",
        "meta_object_id": "1999-025FP",
        "meta_epoch": "2025-12-02T08:27:38.076192",
        "meta_mean_motion": 14.36838993,
        "meta_eccentricity": 0.0088068,
        "meta_inclination": 98.8719,
        "meta_ra_of_asc_node": 266.3293,
        "meta_arg_of_pericenter": 41.4104,
        "meta_mean_anomaly": 76.1707,
        "meta_ephemeris_type": 0,
        "meta_classification_type": "U",
        "meta_norad_cat_id": 29869,
        "meta_element_set_no": 999,
        "meta_rev_at_epoch": 98671,
        "meta_bstar": 0.00054164,
        "meta_mean_motion_dot": 1.626e-05,
        "meta_mean_motion_ddot": 0,
        "tle_line1": "1 29869U 99025FP  25336.35252403  .00001626  00000+0  54164-3 0  9999",
        "tle_line2": "2 29869  98.8719 266.3293 0088068  41.4104  76.1707 14.36838993986716"
      },
      "geometry": {
        "type": "Point",
        "coordinates": [
          -108.71410226677138,
          59.8604757162732
        ]
      }
    },
    {
      "type": "Feature",
      "properties": {
        "norad_id": 29870,
        "name": "FENGYUN 1C DEB",
        "group": "fengyun-1c-debris",
        "lat": 10.310160891216592,
        "lon": -53.44397506736405,
        "alt_km": 869.7570517706599,
        "timestamp": "2025-12-02T21:34:01.543050+00:00",
        "meta_object_name": "FENGYUN 1C DEB",
        "meta_object_id": "1999-025FQ",
        "meta_epoch": "2025-12-02T11:59:52.625760",
        "meta_mean_motion": 14.28975226,
        "meta_eccentricity": 0.011932,
        "meta_inclination": 98.4589,
        "meta_ra_of_asc_node": 307.7204,
        "meta_arg_of_pericenter": 222.7189,
        "meta_mean_anomaly": 257.1735,
        "meta_ephemeris_type": 0,
        "meta_classification_type": "U",
        "meta_norad_cat_id": 29870,
        "meta_element_set_no": 999,
        "meta_rev_at_epoch": 98447,
        "meta_bstar": 7.9912e-05,
        "meta_mean_motion_dot": 1.74e-06,
        "meta_mean_motion_ddot": 0,
        "tle_line1": "1 29870U 99025FQ  25336.49991465  .00000174  00000+0  79912-4 0  9990",
        "tle_line2": "2 29870  98.4589 307.7204 0119320 222.7189 257.1735 14.28975226984479"
      },
      "geometry": {
        "type": "Point",
        "coordinates": [
          -53.44397506736405,
          10.310160891216592
        ]
      }
    },
    {
      "type": "Feature",
      "properties": {
        "norad_id": 29871,
        "name": "FENGYUN 1C DEB",
        "group": "fengyun-1c-debris",
        "lat": -18.603202228458365,
        "lon": 106.47021906560056,
        "alt_km": 735.7167255941868,
        "timestamp": "2025-12-02T21:34:01.543061+00:00",
        "meta_object_name": "FENGYUN 1C DEB",
        "meta_object_id": "1999-025FR",
        "meta_epoch": "2025-12-02T11:11:52.620000",
        "meta_mean_motion": 14.42539486,
        "meta_eccentricity": 0.0058174,
        "meta_inclination": 98.9714,
        "meta_ra_of_asc_node": 289.0641,
        "meta_arg_of_pericenter": 137.6044,
        "meta_mean_anomaly": 338.1255,
        "meta_ephemeris_type": 0,
        "meta_classification_type": "U",
        "meta_norad_cat_id": 29871,
        "meta_element_set_no": 999,
        "meta_rev_at_epoch": 98553,
        "meta_bstar": 0.001118,
        "meta_mean_motion_dot": 3.737e-05,
        "meta_mean_motion_ddot": 0,
        "tle_line1": "1 29871U 99025FR  25336.46658125  .00003737  00000+0  11180-2 0  9990",
        "tle_line2": "2 29871  98.9714 289.0641 0058174 137.6044 338.1255 14.42539486985530"
      },
      "geometry": {
        "type": "Point",
        "coordinates": [
          106.47021906560056,
          -18.603202228458365
        ]
      }
    },
    {
      "type": "Feature",
      "properties": {
        "norad_id": 29872,
        "name": "FENGYUN 1C DEB",
        "group": "fengyun-1c-debris",
        "lat": 33.691276458667375,
        "lon": 178.740180786459,
        "alt_km": 920.552345645543,
        "timestamp": "2025-12-02T21:34:01.543070+00:00",
        "meta_object_name": "FENGYUN 1C DEB",
        "meta_object_id": "1999-025FS",
        "meta_epoch": "2025-12-02T00:51:54.360576",
        "meta_mean_motion": 14.38862874,
        "meta_eccentricity": 0.02360726,
        "meta_inclination": 98.3463,
        "meta_ra_of_asc_node": 352.2834,
        "meta_arg_of_pericenter": 345.8565,
        "meta_mean_anomaly": 13.6087,
        "meta_ephemeris_type": 0,
        "meta_classification_type": "U",
        "meta_norad_cat_id": 29872,
        "meta_element_set_no": 999,
        "meta_rev_at_epoch": 98438,
        "meta_bstar": 0.00073520381,
        "meta_mean_motion_dot": 3.083e-05,
        "meta_mean_motion_ddot": 0,
        "tle_line1": "1 29872U 99025FS  25336.03604584  .00003083  00000+0  73520-3 0  9995",
        "tle_line2": "2 29872  98.3463 352.2834 0236072 345.8565  13.6087 14.38862874984384"
      },
      "geometry": {
        "type": "Point",
        "coordinates": [
          178.740180786459,
          33.691276458667375
        ]
      }
    },
    {
      "type": "Feature",
      "properties": {
        "norad_id": 29873,
        "name": "FENGYUN 1C DEB",
        "group": "fengyun-1c-debris",
        "lat": -44.330763158158334,
        "lon": 7.33103510008661,
        "alt_km": 839.6052610362567,
        "timestamp": "2025-12-02T21:34:01.543081+00:00",
        "meta_object_name": "FENGYUN 1C DEB",
        "meta_object_id": "1999-025FT",
        "meta_epoch": "2025-12-02T02:20:09.284352",
        "meta_mean_motion": 13.98138383,
        "meta_eccentricity": 0.00924012,
        "meta_inclination": 99.4436,
        "meta_ra_of_asc_node": 195.8642,
        "meta_arg_of_pericenter": 228.0795,
        "meta_mean_anomaly": 285.952,
        "meta_ephemeris_type": 0,
        "meta_classification_type": "U",
        "meta_norad_cat_id": 29873,
        "meta_element_set_no": 999,
        "meta_rev_at_epoch": 96166,
        "meta_bstar": 0.00012775702,
        "meta_mean_motion_dot": 1.41e-06,
        "meta_mean_motion_ddot": 0,
        "tle_line1": "1 29873U 99025FT  25336.09732968  .00000141  00000+0  12776-3 0  9998",
        "tle_line2": "2 29873  99.4436 195.8642 0092401 228.0795 285.9520 13.98138383961666"
      },
      "geometry": {
        "type": "Point",
        "coordinates": [
          7.33103510008661,
          -44.330763158158334
        ]
      }
    },
    {
      "type": "Feature",
      "properties": {
        "norad_id": 29874,
        "name": "FENGYUN 1C DEB",
        "group": "fengyun-1c-debris",
        "lat": 80.19625658069958,
        "lon": 175.63220756622013,
        "alt_km": 757.3889984909629,
        "timestamp": "2025-12-02T21:34:01.543091+00:00",
        "meta_object_name": "FENGYUN 1C DEB",
        "meta_object_id": "1999-025FU",
        "meta_epoch": "2025-12-02T06:37:49.710720",
        "meta_mean_motion": 14.28547979,
        "meta_eccentricity": 0.0105656,
        "meta_inclination": 98.3793,
        "meta_ra_of_asc_node": 233.5717,
        "meta_arg_of_pericenter": 20.9535,
        "meta_mean_anomaly": 104.028,
        "meta_ephemeris_type": 0,
        "meta_classification_type": "U",
        "meta_norad_cat_id": 29874,
        "meta_element_set_no": 999,
        "meta_rev_at_epoch": 96698,
        "meta_bstar": 0.0034053,
        "meta_mean_motion_dot": 9.034e-05,
        "meta_mean_motion_ddot": 0,
        "tle_line1": "1 29874U 99025FU  25336.27626980  .00009034  00000+0  34053-2 0  9996",
        "tle_line2": "2 29874  98.3793 233.5717 0105656  20.9535 104.0280 14.28547979966985"
      },
      "geometry": {
        "type": "Point",
        "coordinates": [
          175.63220756622013,
          80.19625658069958
        ]
      }
    },
    {
      "type": "Feature",
      "properties": {
        "norad_id": 29875,
        "name": "FENGYUN 1C DEB",
        "group": "fengyun-1c-debris",
        "lat": 62.25226590583168,
        "lon": 12.412646308971876,
        "alt_km": 749.9383132568919,
        "timestamp": "2025-12-02T21:34:01.543101+00:00",
        "meta_object_name": "FENGYUN 1C DEB",
        "meta_object_id": "1999-025FV",
        "meta_epoch": "2025-12-02T09:34:47.404128",
        "meta_mean_motion": 14.24875897,
        "meta_eccentricity": 0.0083312,
        "meta_inclination": 98.4067,
        "meta_ra_of_asc_node": 28.2603,
        "meta_arg_of_pericenter": 93.1836,
        "meta_mean_anomaly": 290.1836,
        "meta_ephemeris_type": 0,
        "meta_classification_type": "U",
        "meta_norad_cat_id": 29875,
        "meta_element_set_no": 999,
        "meta_rev_at_epoch": 98175,
        "meta_bstar": 4.5011e-05,
        "meta_mean_motion_dot": 6.8e-07,
        "meta_mean_motion_ddot": 0,
        "tle_line1": "1 29875U 99025FV  25336.39915977  .00000068  00000+0  45011-4 0  9993",
        "tle_line2": "2 29875  98.4067  28.2603 0083312  93.1836 290.1836 14.24875897981759"
      },
      "geometry": {
        "type": "Point",
        "coordinates": [
          12.412646308971876,
          62.25226590583168
        ]
      }
    }
  ]
}